[{"OBJECT_NAME":"SL-16 R/B","OBJECT_ID":"1993-059B","EPOCH":"2026-03-26T09:59:35.695104","MEAN_MOTION":14.17235394,"ECCENTRICITY":0.0017538,"INCLINATION":70.9924,"RA_OF_ASC_NODE":335.8559,"ARG_OF_PERICENTER":192.3326,"MEAN_ANOMALY":167.7371,"EPHEMERIS_TYPE":0,"CLASSIFICATION_TYPE":"U","NORAD_CAT_ID":22803,"ELEMENT_SET_NO":999,"REV_AT_EPOCH":68190,"BSTAR":-3.2064e-5,"MEAN_MOTION_DOT":-1.13e-6,"MEAN_MOTION_DDOT":0},{"OBJECT_NAME":"ARIANE 40 R/B","OBJECT_ID":"1993-061H","EPOCH":"2026-03-26T02:36:31.705056","MEAN_MOTION":14.32869473,"ECCENTRICITY":0.00098652,"INCLINATION":98.4886,"RA_OF_ASC_NODE":153.6701,"ARG_OF_PERICENTER":231.0065,"MEAN_ANOMALY":129.0241,"EPHEMERIS_TYPE":0,"CLASSIFICATION_TYPE":"U","NORAD_CAT_ID":22830,"ELEMENT_SET_NO":999,"REV_AT_EPOCH":69645,"BSTAR":9.4598959e-5,"MEAN_MOTION_DOT":2.15e-6,"MEAN_MOTION_DDOT":0},{"OBJECT_NAME":"COSMOS 2278","OBJECT_ID":"1994-023A","EPOCH":"2026-03-26T10:19:05.819808","MEAN_MOTION":14.14376373,"ECCENTRICITY":0.0009067,"INCLINATION":71.0524,"RA_OF_ASC_NODE":140.0771,"ARG_OF_PERICENTER":346.7055,"MEAN_ANOMALY":13.3827,"EPHEMERIS_TYPE":0,"CLASSIFICATION_TYPE":"U","NORAD_CAT_ID":23087,"ELEMENT_SET_NO":999,"REV_AT_EPOCH":64717,"BSTAR":-0.00010583,"MEAN_MOTION_DOT":-2.5e-6,"MEAN_MOTION_DDOT":0},{"OBJECT_NAME":"SL-16 R/B","OBJECT_ID":"1994-023B","EPOCH":"2026-03-26T07:51:36.996192","MEAN_MOTION":14.15013414,"ECCENTRICITY":0.0005447,"INCLINATION":71.001,"RA_OF_ASC_NODE":35.9436,"ARG_OF_PERICENTER":269.8718,"MEAN_ANOMALY":90.178,"EPHEMERIS_TYPE":0,"CLASSIFICATION_TYPE":"U","NORAD_CAT_ID":23088,"ELEMENT_SET_NO":999,"REV_AT_EPOCH":64844,"BSTAR":0.00019346,"MEAN_MOTION_DOT":3.27e-6,"MEAN_MOTION_DDOT":0},{"OBJECT_NAME":"SL-16 R/B","OBJECT_ID":"1994-074B","EPOCH":"2026-03-26T08:30:43.508736","MEAN_MOTION":14.79426138,"ECCENTRICITY":0.0007116,"INCLINATION":97.7085,"RA_OF_ASC_NODE":115.496,"ARG_OF_PERICENTER":155.5629,"MEAN_ANOMALY":215.2884,"EPHEMERIS_TYPE":0,"CLASSIFICATION_TYPE":"U","NORAD_CAT_ID":23343,"ELEMENT_SET_NO":999,"REV_AT_EPOCH":68971,"BSTAR":6.8371e-5,"MEAN_MOTION_DOT":4.61e-6,"MEAN_MOTION_DDOT":0},{"OBJECT_NAME":"SL-16 R/B","OBJECT_ID":"1994-077B","EPOCH":"2026-03-26T02:10:30.568512","MEAN_MOTION":14.15569,"ECCENTRICITY":0.00021127,"INCLINATION":70.9839,"RA_OF_ASC_NODE":317.9867,"ARG_OF_PERICENTER":198.27,"MEAN_ANOMALY":161.8347,"EPHEMERIS_TYPE":0,"CLASSIFICATION_TYPE":"U","NORAD_CAT_ID":23405,"ELEMENT_SET_NO":999,"REV_AT_EPOCH":61855,"BSTAR":4.7698336e-5,"MEAN_MOTION_DOT":4.5e-7,"MEAN_MOTION_DDOT":0},{"OBJECT_NAME":"ARIANE 40+ R/B","OBJECT_ID":"1995-021B","EPOCH":"2026-03-26T11:39:45.761184","MEAN_MOTION":14.39784191,"ECCENTRICITY":0.0007978,"INCLINATION":98.4468,"RA_OF_ASC_NODE":156.7386,"ARG_OF_PERICENTER":93.1506,"MEAN_ANOMALY":277.5028,"EPHEMERIS_TYPE":0,"CLASSIFICATION_TYPE":"U","NORAD_CAT_ID":23561,"ELEMENT_SET_NO":999,"REV_AT_EPOCH":62166,"BSTAR":0.00010577,"MEAN_MOTION_DOT":2.88e-6,"MEAN_MOTION_DDOT":0},{"OBJECT_NAME":"SL-16 R/B","OBJECT_ID":"1995-058B","EPOCH":"2026-03-26T10:50:30.774912","MEAN_MOTION":14.15500005,"ECCENTRICITY":0.0010116,"INCLINATION":71.0209,"RA_OF_ASC_NODE":145.0662,"ARG_OF_PERICENTER":94.7416,"MEAN_ANOMALY":265.4862,"EPHEMERIS_TYPE":0,"CLASSIFICATION_TYPE":"U","NORAD_CAT_ID":23705,"ELEMENT_SET_NO":999,"REV_AT_EPOCH":57022,"BSTAR":-9.1422e-5,"MEAN_MOTION_DOT":-2.26e-6,"MEAN_MOTION_DDOT":0},{"OBJECT_NAME":"SL-16 R/B","OBJECT_ID":"1996-051B","EPOCH":"2026-03-26T09:13:00.603264","MEAN_MOTION":14.1242029,"ECCENTRICITY":0.0013699,"INCLINATION":70.7589,"RA_OF_ASC_NODE":139.9054,"ARG_OF_PERICENTER":121.3103,"MEAN_ANOMALY":238.936,"EPHEMERIS_TYPE":0,"CLASSIFICATION_TYPE":"U","NORAD_CAT_ID":24298,"ELEMENT_SET_NO":999,"REV_AT_EPOCH":52400,"BSTAR":7.2571e-5,"MEAN_MOTION_DOT":8.5e-7,"MEAN_MOTION_DDOT":0},{"OBJECT_NAME":"ORBVIEW 2 (SEASTAR)","OBJECT_ID":"1997-037A","EPOCH":"2026-03-26T10:12:10.470816","MEAN_MOTION":14.35506288,"ECCENTRICITY":0.0002529,"INCLINATION":98.8597,"RA_OF_ASC_NODE":250.1829,"ARG_OF_PERICENTER":36.5055,"MEAN_ANOMALY":323.6301,"EPHEMERIS_TYPE":0,"CLASSIFICATION_TYPE":"U","NORAD_CAT_ID":24883,"ELEMENT_SET_NO":999,"REV_AT_EPOCH":51087,"BSTAR":0.00011859,"MEAN_MOTION_DOT":2.94e-6,"MEAN_MOTION_DDOT":0},{"OBJECT_NAME":"SL-16 R/B","OBJECT_ID":"1998-043G","EPOCH":"2026-03-26T08:38:48.624000","MEAN_MOTION":14.26053525,"ECCENTRICITY":0.0009328,"INCLINATION":98.8282,"RA_OF_ASC_NODE":38.8447,"ARG_OF_PERICENTER":332.1155,"MEAN_ANOMALY":27.9523,"EPHEMERIS_TYPE":0,"CLASSIFICATION_TYPE":"U","NORAD_CAT_ID":25400,"ELEMENT_SET_NO":999,"REV_AT_EPOCH":44136,"BSTAR":5.1813e-5,"MEAN_MOTION_DOT":7.8e-7,"MEAN_MOTION_DDOT":0},{"OBJECT_NAME":"SL-16 R/B","OBJECT_ID":"1998-045B","EPOCH":"2026-03-26T10:54:23.673024","MEAN_MOTION":14.16194784,"ECCENTRICITY":0.0007858,"INCLINATION":71.0108,"RA_OF_ASC_NODE":146.3209,"ARG_OF_PERICENTER":341.8029,"MEAN_ANOMALY":18.2812,"EPHEMERIS_TYPE":0,"CLASSIFICATION_TYPE":"U","NORAD_CAT_ID":25407,"ELEMENT_SET_NO":999,"REV_AT_EPOCH":42947,"BSTAR":-9.6629e-5,"MEAN_MOTION_DOT":-2.39e-6,"MEAN_MOTION_DDOT":0},{"OBJECT_NAME":"ISS (ZARYA)","OBJECT_ID":"1998-067A","EPOCH":"2026-03-26T10:08:08.506752","MEAN_MOTION":15.48556416,"ECCENTRICITY":0.0006244,"INCLINATION":51.6341,"RA_OF_ASC_NODE":349.6418,"ARG_OF_PERICENTER":234.7318,"MEAN_ANOMALY":125.3087,"EPHEMERIS_TYPE":0,"CLASSIFICATION_TYPE":"U","NORAD_CAT_ID":25544,"ELEMENT_SET_NO":999,"REV_AT_EPOCH":55892,"BSTAR":0.00023936,"MEAN_MOTION_DOT":0.00012562,"MEAN_MOTION_DDOT":0},{"OBJECT_NAME":"CZ-4B R/B","OBJECT_ID":"1999-025C","EPOCH":"2026-03-26T09:00:36.021024","MEAN_MOTION":14.18268532,"ECCENTRICITY":0.0036057,"INCLINATION":98.6593,"RA_OF_ASC_NODE":129.2593,"ARG_OF_PERICENTER":297.6687,"MEAN_ANOMALY":72.5234,"EPHEMERIS_TYPE":0,"CLASSIFICATION_TYPE":"U","NORAD_CAT_ID":25732,"ELEMENT_SET_NO":999,"REV_AT_EPOCH":39053,"BSTAR":4.6635e-5,"MEAN_MOTION_DOT":5.3e-7,"MEAN_MOTION_DDOT":0},{"OBJECT_NAME":"OKEAN-O","OBJECT_ID":"1999-039A","EPOCH":"2026-03-26T09:57:34.371360","MEAN_MOTION":14.80361377,"ECCENTRICITY":8.9e-5,"INCLINATION":97.9408,"RA_OF_ASC_NODE":145.1336,"ARG_OF_PERICENTER":87.4864,"MEAN_ANOMALY":272.645,"EPHEMERIS_TYPE":0,"CLASSIFICATION_TYPE":"U","NORAD_CAT_ID":25860,"ELEMENT_SET_NO":999,"REV_AT_EPOCH":43686,"BSTAR":9.6279e-5,"MEAN_MOTION_DOT":6.82e-6,"MEAN_MOTION_DDOT":0},{"OBJECT_NAME":"SL-16 R/B","OBJECT_ID":"1999-039B","EPOCH":"2026-03-26T10:43:11.011008","MEAN_MOTION":14.81753539,"ECCENTRICITY":0.0014367,"INCLINATION":97.9931,"RA_OF_ASC_NODE":144.5154,"ARG_OF_PERICENTER":197.9976,"MEAN_ANOMALY":162.0729,"EPHEMERIS_TYPE":0,"CLASSIFICATION_TYPE":"U","NORAD_CAT_ID":25861,"ELEMENT_SET_NO":999,"REV_AT_EPOCH":43934,"BSTAR":7.6356e-5,"MEAN_MOTION_DOT":5.49e-6,"MEAN_MOTION_DDOT":0},{"OBJECT_NAME":"DELTA 2 R/B","OBJECT_ID":"1999-041E","EPOCH":"2026-03-26T10:21:37.673856","MEAN_MOTION":14.11874235,"ECCENTRICITY":0.0502635,"INCLINATION":51.7606,"RA_OF_ASC_NODE":234.401,"ARG_OF_PERICENTER":37.8096,"MEAN_ANOMALY":325.7055,"EPHEMERIS_TYPE":0,"CLASSIFICATION_TYPE":"U","NORAD_CAT_ID":25876,"ELEMENT_SET_NO":999,"REV_AT_EPOCH":36539,"BSTAR":0.00015446,"MEAN_MOTION_DOT":7.14e-6,"MEAN_MOTION_DDOT":0}]
